[
    {
        "Altitude(m)": 611967.1572183706,
        "Argument of Periapsis(deg)": 0.0,
        "Eccentricity": 0.0,
        "Inclination(deg)": 60.0,
        "Latitude(deg)": 59.14009575620332,
        "Longitude(deg)": -28.908074455172482,
        "Mean Anomaly(deg)": -261.8182,
        "RAAN(deg)": 325.0,
        "Satellite Name": "Test1 1436",
        "Satellite Number": 1436,
        "Semi-Major Axis(m)": 6980739.136638005,
        "Time(s)": 0
    },
    {
        "Altitude(m)": 611934.3575370065,
        "Argument of Periapsis(deg)": 0.00010418945913296404,
        "Eccentricity": 0.0,
        "Inclination(deg)": 60.0,
        "Latitude(deg)": 58.98645950439757,
        "Longitude(deg)": -27.78483003643375,
        "Mean Anomaly(deg)": -261.1980938545382,
        "RAAN(deg)": 324.99957995086027,
        "Satellite Name": "Test1 1436",
        "Satellite Number": 1436,
        "Semi-Major Axis(m)": 6980739.136638005,
        "Time(s)": 10
    }
]